NORAD_CAT_ID,OBJECT_NAME,OBJECT_TYPE,EPOCH,MEAN_MOTION,ECCENTRICITY,INCLINATION,RA_OF_ASC_NODE,ARG_OF_PERICENTER,MEAN_ANOMALY,BSTAR,MEAN_MOTION_DOT,MEAN_MOTION_DDOT,TLE_LINE0,TLE_LINE1,TLE_LINE2,SEMIMAJOR_AXIS,PERIOD,APOGEE,PERIGEE,DECAYED
51140.0,STARLINK-3175,PAYLOAD,2023-03-26 04:56:17,15.08836514,0.0001101,53.2162,105.1101,89.4936,270.6183,0.00012398,1.686e-05,0.0,0 STARLINK-3175,1 51140U 22005AN  23085.20576035  .00001686  00000-0  12398-3 0  9993,2 51140  53.2162 105.1101 0001101  89.4936 270.6183 15.08836514 66889,6917.891,95.438,540.518,538.994,0.0
51140.0,STARLINK-3175,PAYLOAD,2023-03-26 20:50:09,15.08843018,0.0001377,53.2162,102.1371,92.6318,267.4832,0.00021503,3.136e-05,0.0,0 STARLINK-3175,1 51140U 22005AN  23085.86816037  .00003136  00000-0  21503-3 0  9994,2 51140  53.2162 102.1371 0001377  92.6318 267.4832 15.08843018 65870,6917.871,95.437,540.689,538.784,0.0
51140.0,STARLINK-3175,PAYLOAD,2023-03-27 06:22:28,15.08841468,0.0001323,53.2162,100.3526,89.1792,270.9351,0.00025106,3.71e-05,0.0,0 STARLINK-3175,1 51140U 22005AN  23086.26560282  .00003710  00000-0  25106-3 0  9998,2 51140  53.2162 100.3526 0001323  89.1792 270.9351 15.08841468 67043,6917.876,95.437,540.656,538.826,0.0
51140.0,STARLINK-3175,PAYLOAD,2023-03-27 17:30:09,15.08842947,0.0001322,53.2161,98.2713,87.8975,272.2168,0.00017769,2.541e-05,0.0,0 STARLINK-3175,1 51140U 22005AN  23086.72928207  .00002541  00000-0  17769-3 0  9991,2 51140  53.2161  98.2713 0001322  87.8975 272.2168 15.08842947 66001,6917.871,95.437,540.651,538.822,0.0
51140.0,STARLINK-3175,PAYLOAD,2023-03-28 06:13:14,15.08845011,0.0001342,53.2159,95.8921,88.2106,271.904,0.00012675,1.73e-05,0.0,0 STARLINK-3175,1 51140U 22005AN  23087.25919998  .00001730  00000-0  12675-3 0  9997,2 51140  53.2159  95.8921 0001342  88.2106 271.9040 15.08845011 66083,6917.865,95.437,540.658,538.802,0.0
51140.0,STARLINK-3175,PAYLOAD,2023-03-28 17:20:56,15.08844814,0.0001329,53.216,93.8108,87.5245,272.5899,0.0001101,1.465e-05,0.0,0 STARLINK-3175,1 51140U 22005AN  23087.72287991  .00001465  00000-0  11010-3 0  9997,2 51140  53.2160  93.8108 0001329  87.5245 272.5899 15.08844814 67261,6917.866,95.437,540.65,538.811,0.0
51140.0,STARLINK-3175,PAYLOAD,2023-03-29 09:14:48,15.0884798,0.000147,53.2169,90.8368,88.9536,271.1625,0.00018647,2.682e-05,0.0,0 STARLINK-3175,1 51140U 22005AN  23088.38527844  .00002682  00000-0  18647-3 0  9999,2 51140  53.2169  90.8368 0001470  88.9536 271.1625 15.08847980 66257,6917.856,95.437,540.738,538.704,0.0
51140.0,STARLINK-3175,PAYLOAD,2023-03-29 17:11:44,15.08839405,0.0001475,53.2164,89.3504,92.4014,267.7147,5.2562e-05,5.49e-06,0.0,0 STARLINK-3175,1 51140U 22005AN  23088.71648297  .00000549  00000-0  52562-4 0  9997,2 51140  53.2164  89.3504 0001475  92.4014 267.7147 15.08839405 67415,6917.882,95.438,540.768,538.727,0.0
51140.0,STARLINK-3175,PAYLOAD,2023-03-30 21:48:40,15.08838823,0.000151,53.217,83.9977,93.6162,266.5003,0.00010631,1.404e-05,0.0,0 STARLINK-3175,1 51140U 22005AN  23089.90880663  .00001404  00000-0  10631-3 0  9995,2 51140  53.2170  83.9977 0001510  93.6162 266.5003 15.08838823 66480,6917.884,95.438,540.794,538.704,0.0
51140.0,STARLINK-3175,PAYLOAD,2023-03-31 05:45:36,15.08843393,0.0001344,53.2164,82.511,104.8886,255.2255,0.00018288,2.624e-05,0.0,0 STARLINK-3175,1 51140U 22005AN  23090.24000394  .00002624  00000-0  18288-3 0  9990,2 51140  53.2164  82.5110 0001344 104.8886 255.2255 15.08843393 67641,6917.87,95.437,540.665,538.805,0.0
51140.0,STARLINK-3175,PAYLOAD,2023-03-31 16:53:18,15.08838476,0.0001673,53.2161,80.4305,86.6897,273.4287,5.3576e-05,5.65e-06,0.0,0 STARLINK-3175,1 51140U 22005AN  23090.70368874  .00000565  00000-0  53576-4 0  9993,2 51140  53.2161  80.4305 0001673  86.6897 273.4287 15.08838476 67716,6917.885,95.438,540.907,538.593,0.0
51140.0,STARLINK-3175,PAYLOAD,2023-04-01 04:01:01,15.08830233,8.26e-05,53.2166,78.3487,99.3437,260.7648,0.00026547,3.939e-05,0.0,0 STARLINK-3175,1 51140U 22005AN  23091.16737406  .00003939  00000-0  26547-3 0  9990,2 51140  53.2166  78.3487 0000826  99.3437 260.7648 15.08830233 67788,6917.91,95.438,540.347,539.204,0.0
51140.0,STARLINK-3175,PAYLOAD,2023-04-01 08:47:10,15.08842219,0.0001362,53.216,77.4547,100.9594,259.1551,0.00017729,2.535e-05,0.0,0 STARLINK-3175,1 51140U 22005AN  23091.36608841  .00002535  00000-0  17729-3 0  9995,2 51140  53.2160  77.4547 0001362 100.9594 259.1551 15.08842219 67814,6917.874,95.437,540.681,538.796,0.0
51140.0,STARLINK-3175,PAYLOAD,2023-04-02 07:02:33,15.08846605,0.0001488,53.2155,73.2915,98.628,261.488,0.00021891,3.198e-05,0.0,0 STARLINK-3175,1 51140U 22005AN  23092.29344892  .00003198  00000-0  21891-3 0  9992,2 51140  53.2155  73.2915 0001488  98.6280 261.4880 15.08846605 66841,6917.86,95.437,540.755,538.696,0.0
51140.0,STARLINK-3175,PAYLOAD,2023-04-03 05:17:57,15.08846113,0.0001239,53.2158,69.1289,95.3145,264.7989,0.00024181,3.563e-05,0.0,0 STARLINK-3175,1 51140U 22005AN  23093.22080903  .00003563  00000-0  24181-3 0  9997,2 51140  53.2158  69.1289 0001239  95.3145 264.7989 15.08846113 68099,6917.862,95.437,540.584,538.87,0.0
51140.0,STARLINK-3175,PAYLOAD,2023-04-03 06:53:20,15.08849416,0.0001262,53.2158,68.8314,95.9696,264.144,0.00025775,3.818e-05,0.0,0 STARLINK-3175,1 51140U 22005AN  23093.28704739  .00003818  00000-0  25775-3 0  9996,2 51140  53.2158  68.8314 0001262  95.9696 264.1440 15.08849416 66999,6917.852,95.437,540.59,538.844,0.0
51140.0,STARLINK-3175,PAYLOAD,2023-04-04 06:44:07,15.08847946,0.0001198,53.2158,64.3715,93.6556,266.4573,9.5691e-05,1.236e-05,0.0,0 STARLINK-3175,1 51140U 22005AN  23094.28064690  .00001236  00000-0  95691-4 0  9999,2 51140  53.2158  64.3715 0001198  93.6556 266.4573 15.08847946 68252,6917.856,95.437,540.55,538.892,0.0
51140.0,STARLINK-3175,PAYLOAD,2023-04-04 08:19:30,15.08849023,0.0001188,53.2157,64.0739,92.7013,267.4115,0.00010715,1.418e-05,0.0,0 STARLINK-3175,1 51140U 22005AN  23094.34688610  .00001418  00000-0  10715-3 0  9995,2 51140  53.2157  64.0739 0001188  92.7013 267.4115 15.08849023 67150,6917.853,95.437,540.54,538.896,0.0
51140.0,STARLINK-3175,PAYLOAD,2023-04-05 04:59:32,15.0883679,0.0001246,53.2161,60.2078,86.207,273.9065,-2.231e-05,-6.43e-06,0.0,0 STARLINK-3175,1 51140U 22005AN  23095.20801404 -.00000643  00000-0 -22310-4 0  9995,2 51140  53.2161  60.2078 0001246  86.2070 273.9065 15.08836790 68395,6917.89,95.438,540.617,538.893,0.0
51140.0,STARLINK-3175,PAYLOAD,2023-04-05 06:34:55,15.08837519,0.0001317,53.2166,59.9099,88.7342,271.3801,-1.7529e-05,-5.67e-06,0.0,0 STARLINK-3175,1 51140U 22005AN  23095.27425326 -.00000567  00000-0 -17529-4 0  9998,2 51140  53.2166  59.9099 0001317  88.7342 271.3801 15.08837519 67294,6917.888,95.438,540.664,538.842,0.0
51140.0,STARLINK-3175,PAYLOAD,2023-04-06 06:25:42,15.08848155,0.0001398,53.2174,55.4483,84.5574,275.5577,0.00019411,2.803e-05,0.0,0 STARLINK-3175,1 51140U 22005AN  23096.26785002  .00002803  00000-0  19411-3 0  9992,2 51140  53.2174  55.4483 0001398  84.5574 275.5577 15.08848155 68555,6917.855,95.437,540.688,538.753,0.0
51140.0,STARLINK-3175,PAYLOAD,2023-04-06 08:01:05,15.08850077,0.0001425,53.2176,55.1514,86.0249,274.0906,0.00021972,3.212e-05,0.0,0 STARLINK-3175,1 51140U 22005AN  23096.33408921  .00003212  00000-0  21972-3 0  9992,2 51140  53.2176  55.1514 0001425  86.0249 274.0906 15.08850077 67450,6917.85,95.437,540.7,538.729,0.0
51140.0,STARLINK-3175,PAYLOAD,2023-04-07 04:41:06,15.08841857,0.0001274,53.2176,51.2833,87.5586,272.5552,0.00010603,1.4e-05,0.0,0 STARLINK-3175,1 51140U 22005AN  23097.19521486  .00001400  00000-0  10603-3 0  9995,2 51140  53.2176  51.2833 0001274  87.5586 272.5552 15.08841857 68696,6917.875,95.437,540.621,538.858,0.0
51140.0,STARLINK-3175,PAYLOAD,2023-04-07 06:16:29,15.08843279,0.0001268,53.2174,50.9858,88.5487,271.565,0.00012528,1.707e-05,0.0,0 STARLINK-3175,1 51140U 22005AN  23097.26145413  .00001707  00000-0  12528-3 0  9993,2 51140  53.2174  50.9858 0001268  88.5487 271.5650 15.08843279 67597,6917.87,95.437,540.613,538.858,0.0
51140.0,STARLINK-3175,PAYLOAD,2023-04-08 06:07:16,15.08850897,0.0001172,53.2161,46.5287,90.1042,270.0084,0.00012483,1.7e-05,0.0,0 STARLINK-3175,1 51140U 22005AN  23098.25504853  .00001700  00000-0  12483-3 0  9993,2 51140  53.2161  46.5287 0001172  90.1042 270.0084 15.08850897 68859,6917.847,95.437,540.523,538.901,0.0
51140.0,STARLINK-3175,PAYLOAD,2023-04-08 20:25:45,15.08841241,0.0001356,53.2166,43.8513,89.5708,270.544,0.00016689,2.369e-05,0.0,0 STARLINK-3175,1 51140U 22005AN  23098.85121697  .00002369  00000-0  16689-3 0  9994,2 51140  53.2166  43.8513 0001356  89.5708 270.5440 15.08841241 68945,6917.877,95.437,540.68,538.804,0.0
51140.0,STARLINK-3175,PAYLOAD,2023-04-09 05:58:03,15.08846399,0.0001278,53.2167,42.0678,96.4413,263.6725,0.00015123,2.12e-05,0.0,0 STARLINK-3175,1 51140U 22005AN  23099.24865260  .00002120  00000-0  15123-3 0  9996,2 51140  53.2167  42.0678 0001278  96.4413 263.6725 15.08846399 67893,6917.861,95.437,540.61,538.842,0.0
51140.0,STARLINK-3175,PAYLOAD,2023-04-10 05:48:50,15.0884587,0.0001202,53.2167,37.6089,93.7834,266.3296,0.00014454,2.014e-05,0.0,0 STARLINK-3175,1 51140U 22005AN  23100.24225478  .00002014  00000-0  14454-3 0  9998,2 51140  53.2167  37.6089 0001202  93.7834 266.3296 15.08845870 69150,6917.862,95.437,540.559,538.896,0.0
51140.0,STARLINK-3175,PAYLOAD,2023-04-11 04:04:14,15.08852158,0.0001222,53.2181,33.446,94.7745,265.3387,0.00031336,4.704e-05,0.0,0 STARLINK-3175,1 51140U 22005AN  23101.16961158  .00004704  00000-0  31336-3 0  9998,2 51140  53.2181  33.4460 0001222  94.7745 265.3387 15.08852158 68186,6917.843,95.437,540.554,538.863,0.0
51140.0,STARLINK-3175,PAYLOAD,2023-04-11 18:22:43,15.08839163,0.0001304,53.2184,30.7724,93.804,266.3101,0.00010072,1.315e-05,0.0,0 STARLINK-3175,1 51140U 22005AN  23101.76577882  .00001315  00000-0  10072-3 0  9990,2 51140  53.2184  30.7724 0001304  93.8040 266.3101 15.08839163 69380,6917.883,95.438,540.65,538.846,0.0
